{
  "norad_id": 66505,
  "name": "STARLINK-34766",
  "history": [
    {
      "epoch": "2026-04-19T08:41:00.424608Z",
      "apogee_km": 484.19717025035516,
      "perigee_km": 481.78877640711744,
      "latitude_deg": 9.567906828434059e-06,
      "longitude_deg": 142.8934918845516,
      "height_km": 482.62983721057185,
      "semi_major_axis_km": 6861.129973328736,
      "eccentricity": 0.00017551,
      "inclination_deg": 43.0021,
      "raan_deg": 120.6128,
      "arg_perigee_deg": 276.6938,
      "mean_anomaly_deg": 83.3714,
      "mean_motion_rev_day": 15.27598743
    },
    {
      "epoch": "2026-04-20T11:21:40.687776Z",
      "apogee_km": 483.8310528418133,
      "perigee_km": 482.21277989979717,
      "latitude_deg": 4.374576323385955e-05,
      "longitude_deg": 95.34894287869704,
      "height_km": 483.28183449358335,
      "semi_major_axis_km": 6861.158916370805,
      "eccentricity": 0.00011793,
      "inclination_deg": 43.0009,
      "raan_deg": 114.3316,
      "arg_perigee_deg": 233.2982,
      "mean_anomaly_deg": 126.7762,
      "mean_motion_rev_day": 15.27589077
    },
    {
      "epoch": "2026-04-21T17:10:38.955360Z",
      "apogee_km": 483.521819420439,
      "perigee_km": 482.57772012091846,
      "latitude_deg": 2.5788283983898085e-06,
      "longitude_deg": -0.13479288560250902,
      "height_km": 483.2864861128391,
      "semi_major_axis_km": 6861.186769770678,
      "eccentricity": 6.88e-05,
      "inclination_deg": 42.9992,
      "raan_deg": 107.3152,
      "arg_perigee_deg": 192.242,
      "mean_anomaly_deg": 167.8415,
      "mean_motion_rev_day": 15.27579775
    },
    {
      "epoch": "2026-04-22T16:42:59.213952Z",
      "apogee_km": 484.1255379150489,
      "perigee_km": 481.8929209319949,
      "latitude_deg": 4.7601310093003006e-05,
      "longitude_deg": 0.2787311209752246,
      "height_km": 483.01810842199615,
      "semi_major_axis_km": 6861.146229423522,
      "eccentricity": 0.0001627,
      "inclination_deg": 43.0024,
      "raan_deg": 101.7798,
      "arg_perigee_deg": 258.0158,
      "mean_anomaly_deg": 102.0512,
      "mean_motion_rev_day": 15.27593314
    },
    {
      "epoch": "2026-04-22T22:59:36.371040Z",
      "apogee_km": 484.1502802406412,
      "perigee_km": 481.7722235865285,
      "latitude_deg": -6.465370642221529e-06,
      "longitude_deg": -95.61073510907703,
      "height_km": 482.94412204052566,
      "semi_major_axis_km": 6861.098251913585,
      "eccentricity": 0.0001733,
      "inclination_deg": 43.0027,
      "raan_deg": 100.303,
      "arg_perigee_deg": 260.0402,
      "mean_anomaly_deg": 100.0254,
      "mean_motion_rev_day": 15.27609337
    },
    {
      "epoch": "2026-04-24T00:06:07.155936Z",
      "apogee_km": 483.9130597817857,
      "perigee_km": 482.19446871915534,
      "latitude_deg": -7.849804651162135e-06,
      "longitude_deg": -119.17908043094639,
      "height_km": 483.09457640717346,
      "semi_major_axis_km": 6861.19076425047,
      "eccentricity": 0.00012524,
      "inclination_deg": 43.0024,
      "raan_deg": 94.3941,
      "arg_perigee_deg": 252.1039,
      "mean_anomaly_deg": 107.9676,
      "mean_motion_rev_day": 15.27578441
    },
    {
      "epoch": "2026-04-25T09:03:26.662752Z",
      "apogee_km": 484.1158206792152,
      "perigee_km": 482.09587078543154,
      "latitude_deg": -2.24289069359535e-06,
      "longitude_deg": 97.38321528000378,
      "height_km": 482.85257607534544,
      "semi_major_axis_km": 6861.242845732323,
      "eccentricity": 0.0001472,
      "inclination_deg": 43.0033,
      "raan_deg": 86.6411,
      "arg_perigee_deg": 271.7251,
      "mean_anomaly_deg": 88.3432,
      "mean_motion_rev_day": 15.27561048
    },
    {
      "epoch": "2026-04-26T14:52:23.201472Z",
      "apogee_km": 484.0016434473255,
      "perigee_km": 481.7417644004263,
      "latitude_deg": 4.554297820836961e-05,
      "longitude_deg": 1.9069010404751474,
      "height_km": 482.4687446206396,
      "semi_major_axis_km": 6861.008703923875,
      "eccentricity": 0.00016469,
      "inclination_deg": 43.0036,
      "raan_deg": 79.6248,
      "arg_perigee_deg": 279.1797,
      "mean_anomaly_deg": 80.8869,
      "mean_motion_rev_day": 15.27639244
    },
    {
      "epoch": "2026-04-27T14:24:43.817760Z",
      "apogee_km": 484.43622737654005,
      "perigee_km": 481.4955586765891,
      "latitude_deg": 4.188140913167048e-05,
      "longitude_deg": 2.313681791270922,
      "height_km": 483.044994835407,
      "semi_major_axis_km": 6861.102893026565,
      "eccentricity": 0.0002143,
      "inclination_deg": 43.0054,
      "raan_deg": 74.0842,
      "arg_perigee_deg": 258.1751,
      "mean_anomaly_deg": 101.8861,
      "mean_motion_rev_day": 15.27607787
    },
    {
      "epoch": "2026-04-28T13:57:04.852224Z",
      "apogee_km": 484.25649766865354,
      "perigee_km": 481.79608451246804,
      "latitude_deg": -3.726183961406056e-07,
      "longitude_deg": 2.7207742611985655,
      "height_km": 483.0386190155177,
      "semi_major_axis_km": 6861.16329109056,
      "eccentricity": 0.0001793,
      "inclination_deg": 43.0024,
      "raan_deg": 68.5457,
      "arg_perigee_deg": 258.9825,
      "mean_anomaly_deg": 101.0825,
      "mean_motion_rev_day": 15.27587616
    },
    {
      "epoch": "2026-04-29T13:29:26.068992Z",
      "apogee_km": 483.1767877446109,
      "perigee_km": 482.9050850983276,
      "latitude_deg": -3.2339320990421014e-05,
      "longitude_deg": 3.1270157167434296,
      "height_km": 482.8456226113775,
      "semi_major_axis_km": 6861.177936421469,
      "eccentricity": 1.98e-05,
      "inclination_deg": 43.0027,
      "raan_deg": 63.0071,
      "arg_perigee_deg": 257.7681,
      "mean_anomaly_deg": 102.3148,
      "mean_motion_rev_day": 15.27582725
    },
    {
      "epoch": "2026-04-30T13:01:46.859808Z",
      "apogee_km": 483.42445044678334,
      "perigee_km": 482.66423155420125,
      "latitude_deg": 1.4383459252595093e-05,
      "longitude_deg": 3.5355201594591743,
      "height_km": 482.90618707171575,
      "semi_major_axis_km": 6861.1813410004925,
      "eccentricity": 5.54e-05,
      "inclination_deg": 43.0015,
      "raan_deg": 57.4689,
      "arg_perigee_deg": 256.9616,
      "mean_anomaly_deg": 103.1174,
      "mean_motion_rev_day": 15.27581588
    },
    {
      "epoch": "2026-05-01T12:34:07.149504Z",
      "apogee_km": 483.3148895637678,
      "perigee_km": 482.69834719821847,
      "latitude_deg": 3.6856074546705728e-06,
      "longitude_deg": 3.942956313030083,
      "height_km": 482.7282590334575,
      "semi_major_axis_km": 6861.143618380993,
      "eccentricity": 4.493e-05,
      "inclination_deg": 43.0021,
      "raan_deg": 51.9276,
      "arg_perigee_deg": 280.1726,
      "mean_anomaly_deg": 79.9075,
      "mean_motion_rev_day": 15.27594186
    },
    {
      "epoch": "2026-05-03T19:29:35.890080Z",
      "apogee_km": 483.5787723266458,
      "perigee_km": 482.5358707897685,
      "latitude_deg": 4.722441747694835e-05,
      "longitude_deg": -115.10433020007362,
      "height_km": 482.98507013118666,
      "semi_major_axis_km": 6861.194321558207,
      "eccentricity": 7.6e-05,
      "inclination_deg": 43.0011,
      "raan_deg": 39.0057,
      "arg_perigee_deg": 253.1055,
      "mean_anomaly_deg": 106.9714,
      "mean_motion_rev_day": 15.27577253
    },
    {
      "epoch": "2026-05-04T11:11:10.300416Z",
      "apogee_km": 483.4094721853853,
      "perigee_km": 482.6745026922508,
      "latitude_deg": 4.605964771755231e-05,
      "longitude_deg": 5.166105765895711,
      "height_km": 482.8395301467638,
      "semi_major_axis_km": 6861.178987438818,
      "eccentricity": 5.356e-05,
      "inclination_deg": 42.9998,
      "raan_deg": 35.314,
      "arg_perigee_deg": 266.6241,
      "mean_anomaly_deg": 93.455,
      "mean_motion_rev_day": 15.27582374
    },
    {
      "epoch": "2026-05-05T10:43:30.298080Z",
      "apogee_km": 483.99340141073117,
      "perigee_km": 481.90077076447415,
      "latitude_deg": -2.607388491934816e-05,
      "longitude_deg": 5.5745938218845685,
      "height_km": 482.64694381276087,
      "semi_major_axis_km": 6861.084086087602,
      "eccentricity": 0.0001525,
      "inclination_deg": 43.0038,
      "raan_deg": 29.7726,
      "arg_perigee_deg": 274.241,
      "mean_anomaly_deg": 85.8267,
      "mean_motion_rev_day": 15.27614068
    },
    {
      "epoch": "2026-05-06T16:32:27.478752Z",
      "apogee_km": 483.61042834696855,
      "perigee_km": 482.29035513279814,
      "latitude_deg": 1.4909130105909444e-05,
      "longitude_deg": -89.90131486296602,
      "height_km": 482.66889335353676,
      "semi_major_axis_km": 6861.087391739883,
      "eccentricity": 9.62e-05,
      "inclination_deg": 43.0,
      "raan_deg": 22.7594,
      "arg_perigee_deg": 275.026,
      "mean_anomaly_deg": 85.0482,
      "mean_motion_rev_day": 15.27612964
    },
    {
      "epoch": "2026-05-07T17:38:57.878304Z",
      "apogee_km": 483.9754367548776,
      "perigee_km": 482.09821959548844,
      "latitude_deg": -1.3436309610917368e-05,
      "longitude_deg": -113.46828078476108,
      "height_km": 482.97290296973466,
      "semi_major_axis_km": 6861.173828175183,
      "eccentricity": 0.0001368,
      "inclination_deg": 43.004,
      "raan_deg": 16.8503,
      "arg_perigee_deg": 260.2476,
      "mean_anomaly_deg": 99.8221,
      "mean_motion_rev_day": 15.27584097
    },
    {
      "epoch": "2026-05-08T09:20:31.913664Z",
      "apogee_km": 483.42302952801856,
      "perigee_km": 482.61341321189593,
      "latitude_deg": 1.6449434486286245e-05,
      "longitude_deg": 6.80355518595634,
      "height_km": 482.42850041356263,
      "semi_major_axis_km": 6861.155221369957,
      "eccentricity": 5.9e-05,
      "inclination_deg": 43.0012,
      "raan_deg": 13.1584,
      "arg_perigee_deg": 25.6074,
      "mean_anomaly_deg": 334.4807,
      "mean_motion_rev_day": 15.27590311
    }
  ]
}